#dP2022  9  5  0  0  0.00000000      96 __u+U ITR14 FIT  IAC
## 2226  86400.00000000   900.00000000 59827 0.0000000000000
+  127   C01C02C03C04C05C06C07C08C09C10C11C12C13C14C16C19C20
+        C21C22C23C24C25C26C27C28C29C30C32C33C34C35C36C37C38
+        C39C40C41C42C43C44C45C46C60E01E02E03E04E05E07E08E09
+        E10E11E12E13E14E15E18E19E21E24E25E26E27E30E31E33E34
+        E36G01G02G03G04G05G06G07G08G09G10G11G12G13G14G15G16
+        G17G18G19G20G21G22G23G24G25G26G27G28G29G30G31G32J02
+        J03J07R01R02R03R04R05R06R07R08R09R10R11R12R13R14R15
+        R17R18R19R20R21R23R24R25  0  0  0  0  0  0  0  0  0
++        17 16  0 16 16  9  9  9  9  9  8  8  8  9  9  7  7
++         7  7  7  7  7  7  7  7  7  7  7  7  7  7  8  7  8
++         8  8  7  7  7  7  7  7 16  4  4  4  4  5  4  4  4
++         4  4  4  4  5  4  4  4  4  4  4  5  4  4  4  5  4
++         4  4  4  3  3  4  3  4  4  4  4  3  3  4  4  4  4
++         4  4  4  4  4  3  4  4  3  4  4  5  4  4  3  3  8
++         8 17  7  8  6  6  6 15  6  6  6 15  6  6  7  6  6
++         6  6  7  7  5 15  6 11  0  0  0  0  0  0  0  0  0
%c M  cc GPS ccc cccc cccc cccc cccc ccccc ccccc ccccc ccccc
%c cc cc ccc ccc cccc cccc cccc cccc ccccc ccccc ccccc ccccc
%f  0.0000000  0.000000000  0.00000000000  0.000000000000000
%f  0.0000000  0.000000000  0.00000000000  0.000000000000000
%i    0    0    0    0      0      0      0      0         0
%i    0    0    0    0      0      0      0      0         0
/* INFORMATION & ANALYSIS CENTER (IAC)            RAPID DATA
/* S/V CLOCKS ARE ALIGNED TO GNSS TIME                      
/* G:C1WC2W R:C1PC2P E:C1XC5X C:C2IC6I J:C1CC2S             
/* PCV:IGS14_2218 OL/AL:FES2004  NONE     YN ORB:CoN CLK:CoN
*  2022 09 05 18  0  0.00000000
PC01 -34337.032014  24507.127277   -507.135039    619.492310
PC02   4455.833901  41841.440138   -807.169837    468.492138
PC03      0.000000      0.000000      0.000000 999999.999999
PC04 -39660.149282  14374.316768    -24.391570    345.461624
PC05  21994.664363  35965.308704  -1146.136637   -106.511599
PC06 -10863.157859  40371.286980  -4373.530138    771.701761
PC07  -4721.978046  28197.814721  31071.985213   -100.682709
PC08 -19017.257650  24771.862957 -28434.418471    462.996675
PC09  -5717.397334  41187.986159   5424.426340   -872.761002
PC10   3248.351231  31046.113851  28840.148455    100.328572
PC11 -13053.330618  18156.308047  16784.038987   -426.550168
PC12 -15310.242002  -1439.150039  23321.401389   -528.298370
PC13 -11167.054420  25811.823030 -31398.234538     72.432467
PC14 -14841.141935   8308.207655 -22101.805375    633.615609
PC16 -12660.184235  39251.848850  -7838.182858    139.580407
PC19   5705.655404 -15025.878454  22828.073069   -588.533381
PC20  20556.222401  -1582.263957  18825.153115    453.782438
PC21 -24032.186405 -13799.711001  -3178.530769   -334.074395
PC22 -13095.207188 -20408.023951  13782.463350   -490.971242
PC23   2603.025816  16561.516340  22321.409143   -965.451958
PC24 -26111.864724   8757.906027  -4583.490654     -2.082723
PC25 -15584.242389  18784.692913  13544.305797   -682.521134
PC26 -20897.798559  -3989.830529 -18084.735019     -3.319839
PC27  13816.239172  11489.739392 -21369.265596     16.349266
PC28   4436.140680  25781.653628  -9728.224190      9.555905
PC29   7275.887047 -25539.441288  -8576.098446      9.539258
PC30  15330.787247  -9438.587944 -21333.327158    502.716403
PC32  24139.538722  13664.343579   3107.613805   -817.888445
PC33  -5703.002974  15036.772632 -22809.973827   -588.350116
PC34 -15155.029147  10614.259674  20873.901198   -320.176784
PC35  -4513.162848 -26209.446920   8486.850523    445.312031
PC36  16511.482542 -18284.504011 -13070.901043    -64.669743
PC37  19884.756305   5469.154598  18810.128654   -102.734233
PC38 -25242.146595  26006.459701 -21687.124899     22.184226
PC39 -13706.230524  37314.526731 -13735.493551     -0.376722
PC40  -8294.520504  22481.828944  34715.942300     -3.602956
PC41  12730.246847  20385.052205 -14138.330354    -51.224652
PC42 -21195.465165    665.498044 -18093.976396   -242.060416
PC43  -7822.009687  25148.295969   9194.582020     12.616594
PC44 -14263.674621 -11252.634166  21175.884466     40.625258
PC45  -2956.411268 -16293.550374 -22450.161383    853.395264
PC46  25891.423495  -9915.162533   2994.990192   -525.334317
PC60   7308.761507  41541.643697   -546.228376     -0.222946
PE01  14284.817435 -13790.842040 -21942.027080   -522.332205
PE02 -14107.528050  13866.832689  22030.462249    322.865759
PE03  -4742.795007  21859.482934 -19398.423230   -596.840417
PE04 -10111.380927 -27558.841540   3800.191832  -1109.062353
PE05 -17140.354178   3161.183355 -23925.206002   -146.801806
PE07  19376.840764  17072.148155  14477.060537   -702.878639
PE08  10285.625516  27513.258919  -3715.307776   -593.691735
PE09 -19325.006286 -17118.294415 -14468.513812   -648.124576
PE10  -7586.232870 -16018.661696  23691.429375   -474.783358
PE11 -15130.850367  -6214.933944  24654.756239   2345.553988
PE12    619.661831 -22704.440450  18977.478087   -153.300751
PE13  14599.874249   6946.686938 -24795.755359    430.505734
PE14  14171.577323  27123.161374  -7019.307726  -1728.733476
PE15   -781.440160  22778.170612 -18889.870800    722.313264
PE18  -5716.038770 -24320.539680  -1275.571632  -1010.968648
PE19   6648.666622 -19920.821715  20863.258404  -4611.972890
PE21  27869.661973  -3942.175413  -9151.770856   -756.000951
PE24 -25904.146265  -9608.404069 -10654.791262   -820.497131
PE25 -27980.094634   3768.897408   8912.323438   -586.809823
PE26  21408.051762 -13499.761352 -15341.711893  -1578.575676
PE27  26489.743681   8902.191690   9758.489816   -385.108820
PE30   8514.668917  16580.213334  22992.252477   -812.730463
PE31  -9556.854323 -16369.495260 -22719.883681   -502.969215
PE33  15610.545215 -25077.554130   1877.438301   -453.561024
PE34 -15456.688122  25171.167470  -2076.251902     -3.018118
PE36 -21277.068760  12820.733100  16095.582067   -427.143019
PG01 -12954.981313  22000.967986  -6950.067185    289.122669
PG02  17169.256019 -19981.157839  -3462.646804   -647.005960
PG03  -9418.493028  12982.923384 -21274.117945   -345.896763
PG04  -3460.093525  21956.911825 -14464.005040   -123.037826
PG05  21044.858919  -7322.056418  14380.229580    -95.555942
PG06  16226.832373   2158.378266 -20872.463763    450.808323
PG07    786.165315  19364.853807  18358.974198    309.831064
PG08  -9261.889366  14610.031771  20012.216419    -83.401982
PG09   6312.508624  25375.877344  -4615.394976   -299.743036
PG10 -21238.084192 -11584.092398  11459.764561     -1.979893
PG11  20987.419410  -8155.602430 -14062.016468    -14.524053
PG12  11456.658114 -12016.206062 -20974.617658   -273.636645
PG13  14026.627372  -5540.601255  21686.585680    381.810262
PG14  19451.519915  13240.970015  12432.258532   -105.513786
PG15   7854.304456 -15908.491706  19244.160358    -31.433154
PG16 -24875.714906    159.855563   9655.266426   -523.191722
PG17  12765.238415  21118.337230  -9306.772338    656.077241
PG18   -609.236429 -18746.683072  18743.252121     58.432691
PG19  15483.552289  12880.144451 -17686.575547    206.754898
PG20  26338.148876  -1068.505418   1987.914045    488.868394
PG21 -17136.325316  19493.893903   3896.324985    159.791466
PG22 -15978.565466 -10101.236367 -18311.022485    322.554950
PG23 -12217.668823 -14640.509475  18530.277552    -38.978470
PG24  13875.740708 -22304.335784  -2119.645409    145.510283
PG25  -2661.990058 -15844.970357 -21473.681770    368.801761
PG26 -26557.818395  -3095.260243    -10.383003    227.173095
PG27 -15176.043681   1422.146542  21571.458861    214.395625
PG28  24104.227602   9986.970848   4721.458925    339.649745
PG29  -3664.106181 -25769.156940  -5110.222935   -549.035874
PG30  10602.566137  11814.905882  21372.138786   -536.717476
PG31 -17889.003843   -973.767449 -19886.996982   -192.284173
PG32 -15470.252697 -18269.005625 -11561.747587   -224.513320
PJ02 -30420.623296  22473.971546  23652.746146     -4.435906
PJ03 -29687.140808  27024.336253  18012.344797     -1.287183
PJ07 -25391.606685  33670.003053    -30.176526     -0.018208
PR01 -18994.725145 -16933.013851  -1705.988010     14.286507
PR02 -16870.582125  -4697.766638 -18537.963918    -22.629236
PR03  -5133.637067  10125.143453 -22798.308516     63.164295
PR04   9298.807340  18900.795863 -14353.206754    156.509077
PR05  18495.320805  17433.476301   1997.311069     99.142450
PR06  16573.001977   3050.028195  19125.064454    -68.287055
PR07   4448.735413 -10766.115213  22731.649458     40.502915
PR08  -9397.108869 -18974.169131  14299.572471    -67.051882
PR09  24721.834227  -5684.775116   3070.187556     75.106955
PR10  18909.729381 -11652.444637 -12477.458084    -85.760819
PR11   1773.893599 -11658.488158 -22604.800737     28.321678
PR12 -17129.047047  -4392.568441 -18358.317719     20.880366
PR13 -24633.693010   4821.279791  -4542.653882    -26.475927
PR14 -17797.071017  11956.570119  13822.108332     24.308857
PR15   -772.877281  11550.241899  22755.312947     93.873526
PR17 -10173.874495  21555.172268   9158.570414    558.609093
PR18  -3213.060027  24099.199696  -7639.503228     40.988173
PR19   4459.703977  15359.529126 -19878.721736   -202.606438
PR20  11900.341019  -5622.082907 -21851.898612    -77.840152
PR21   9776.899445 -22254.402154  -7678.169469   -331.351672
PR23  -7314.477373 -10312.153032  22142.452173    -53.858408
PR24 -12255.802905   6524.594532  21417.891203    112.912164
PR25   3635.552440 -23857.958459   8297.029189 999999.999999
EOF
